NORAD_CAT_ID,OBJECT_NAME,OBJECT_TYPE,EPOCH,MEAN_MOTION,ECCENTRICITY,INCLINATION,RA_OF_ASC_NODE,ARG_OF_PERICENTER,MEAN_ANOMALY,BSTAR,MEAN_MOTION_DOT,MEAN_MOTION_DDOT,TLE_LINE0,TLE_LINE1,TLE_LINE2,SEMIMAJOR_AXIS,PERIOD,APOGEE,PERIGEE,DECAYED
49177.0,STARLINK-3103,PAYLOAD,2023-11-22 02:05:39,14.98341287,0.0002788,69.9991,208.875,261.1305,98.9538,-7.1657e-05,-9.48e-06,0.0,0 STARLINK-3103,1 49177U 21082AZ  23326.08726744 -.00000948  00000-0 -71657-4 0  9998,2 49177  69.9991 208.8750 0002788 261.1305  98.9538 14.98341287122549,6950.158,96.106,573.961,570.085,0.0
49177.0,STARLINK-3103,PAYLOAD,2023-11-22 21:19:16,14.9833495,0.0002905,69.999,206.8556,267.399,92.6836,8.3459e-05,9.03e-06,0.0,0 STARLINK-3103,1 49177U 21082AZ  23326.88838435  .00000903  00000-0  83459-4 0  9999,2 49177  69.9990 206.8556 0002905 267.3990  92.6836 14.98334950122663,6950.178,96.107,574.062,570.024,0.0
49177.0,STARLINK-3103,PAYLOAD,2023-11-23 02:07:40,14.9834141,0.000279,69.9991,206.3506,268.3509,91.733,0.0001371,1.544e-05,0.0,0 STARLINK-3103,1 49177U 21082AZ  23327.08865822  .00001544  00000-0  13710-3 0  9996,2 49177  69.9991 206.3506 0002790 268.3509  91.7330 14.98341410122694,6950.158,96.106,573.962,570.084,0.0
49177.0,STARLINK-3103,PAYLOAD,2023-11-23 19:45:10,14.98323275,0.0002856,69.9987,204.4991,268.7231,91.36,-2.393e-06,-1.22e-06,0.0,0 STARLINK-3103,1 49177U 21082AZ  23327.82303343 -.00000122  00000-0 -23930-5 0  9993,2 49177  69.9987 204.4991 0002856 268.7231  91.3600 14.98323275122803,6950.214,96.107,574.064,570.094,0.0
49177.0,STARLINK-3103,PAYLOAD,2023-11-23 21:21:18,14.98321383,0.0003025,69.9984,204.3321,269.3784,90.7029,-2.189e-05,-3.54e-06,0.0,0 STARLINK-3103,1 49177U 21082AZ  23327.88979532 -.00000354  00000-0 -21890-4 0  9997,2 49177  69.9984 204.3321 0003025 269.3784  90.7029 14.98321383122812,6950.22,96.108,574.187,569.982,0.0
49177.0,STARLINK-3103,PAYLOAD,2023-11-24 02:09:42,14.98322093,0.000301,69.9982,203.8269,266.8909,93.1905,-1.6313e-05,-2.88e-06,0.0,0 STARLINK-3103,1 49177U 21082AZ  23328.09007549 -.00000288  00000-0 -16313-4 0  9991,2 49177  69.9982 203.8269 0003010 266.8909  93.1905 14.98322093122842,6950.217,96.108,574.174,569.99,0.0
49177.0,STARLINK-3103,PAYLOAD,2023-11-24 19:47:10,14.98332962,0.0002938,69.9984,201.975,267.3224,92.7599,-8.6227e-06,-1.96e-06,0.0,0 STARLINK-3103,1 49177U 21082AZ  23328.82443039 -.00000196  00000-0 -86227-5 0  9990,2 49177  69.9984 201.9750 0002938 267.3224  92.7599 14.98332962122954,6950.184,96.107,574.091,570.007,0.0
49177.0,STARLINK-3103,PAYLOAD,2023-11-24 21:23:18,14.98332766,0.0002687,69.9993,201.8066,273.1723,86.9129,5.4797e-06,-2.8e-07,0.0,0 STARLINK-3103,1 49177U 21082AZ  23328.89119076 -.00000028  00000-0  54797-5 0  9998,2 49177  69.9993 201.8066 0002687 273.1723  86.9129 14.98332766122960,6950.184,96.107,573.917,570.182,0.0
49177.0,STARLINK-3103,PAYLOAD,2023-11-25 02:11:42,14.98338657,0.0002335,69.9994,201.3019,277.1221,82.9672,8.8855e-05,9.68e-06,0.0,0 STARLINK-3103,1 49177U 21082AZ  23329.09146604  .00000968  00000-0  88855-4 0  9991,2 49177  69.9994 201.3019 0002335 277.1221  82.9672 14.98338657122998,6950.166,96.106,573.654,570.408,0.0
49177.0,STARLINK-3103,PAYLOAD,2023-11-25 21:25:19,14.98332268,0.0002612,69.9992,199.2818,270.0631,90.0229,0.00026211,3.036e-05,0.0,0 STARLINK-3103,1 49177U 21082AZ  23329.89258401  .00003036  00000-0  26211-3 0  9994,2 49177  69.9992 199.2818 0002612 270.0631  90.0229 14.98332268123118,6950.186,96.107,573.866,570.235,0.0
49177.0,STARLINK-3103,PAYLOAD,2023-11-26 00:37:35,14.98335903,0.0002538,69.9994,198.9453,267.2891,92.7977,0.00031518,3.67e-05,0.0,0 STARLINK-3103,1 49177U 21082AZ  23330.02610051  .00003670  00000-0  31518-3 0  9994,2 49177  69.9994 198.9453 0002538 267.2891  92.7977 14.98335903123134,6950.175,96.107,573.804,570.276,0.0
49177.0,STARLINK-3103,PAYLOAD,2023-11-26 19:51:18,14.98267382,0.0002325,69.9998,196.9258,239.6333,120.4596,-0.00066128,-7.961e-05,0.0,0 STARLINK-3103,1 49177U 21082AZ  23330.82729223 -.00007961  00000-0 -66128-3 0  9998,2 49177  69.9998 196.9258 0002325 239.6333 120.4596 14.98267382123251,6950.387,96.111,573.868,570.636,0.0
49177.0,STARLINK-3103,PAYLOAD,2023-11-26 21:27:25,14.98273403,0.0002177,70.0007,196.7583,229.0017,131.0954,-0.00056127,-6.773e-05,0.0,0 STARLINK-3103,1 49177U 21082AZ  23330.89404907 -.00006773  00000-0 -56127-3 0  9992,2 49177  70.0007 196.7583 0002177 229.0017 131.0954 14.98273403123269,6950.368,96.111,573.746,570.72,0.0
49177.0,STARLINK-3103,PAYLOAD,2023-11-27 00:39:38,14.98318568,0.000183,70.0003,196.4214,279.6709,80.4243,-4.4106e-05,-6.19e-06,0.0,0 STARLINK-3103,1 49177U 21082AZ  23331.02753425 -.00000619  00000-0 -44106-4 0  9998,2 49177  70.0003 196.4214 0001830 279.6709  80.4243 14.98318568123289,6950.228,96.108,573.365,570.821,0.0
49177.0,STARLINK-3103,PAYLOAD,2023-11-27 18:17:06,14.98330822,0.0002498,70.0003,194.5711,261.417,98.6707,3.5161e-05,3.27e-06,0.0,0 STARLINK-3103,1 49177U 21082AZ  23331.76188354  .00000327  00000-0  35161-4 0  9997,2 49177  70.0003 194.5711 0002498 261.4170  98.6707 14.98330822123397,6950.19,96.107,573.792,570.319,0.0
49177.0,STARLINK-3103,PAYLOAD,2023-11-27 21:29:22,14.98333066,0.0002248,70.0011,194.2347,228.3381,131.7586,8.8624e-05,9.65e-06,0.0,0 STARLINK-3103,1 49177U 21082AZ  23331.89540008  .00000965  00000-0  88624-4 0  9999,2 49177  70.0011 194.2347 0002248 228.3381 131.7586 14.98333066123417,6950.183,96.107,573.611,570.486,0.0
49177.0,STARLINK-3103,PAYLOAD,2023-11-28 13:30:43,14.98311307,0.0002723,69.9985,192.5475,261.2765,98.8085,0.00072331,8.544e-05,0.0,0 STARLINK-3103,1 49177U 21082AZ  23332.56299786  .00008544  00000-0  72331-3 0  9996,2 49177  69.9985 192.5475 0002723 261.2765  98.8085 14.98311307123519,6950.251,96.108,574.008,570.223,0.0
49177.0,STARLINK-3103,PAYLOAD,2023-11-28 19:55:15,14.98316727,0.0002542,70.0006,191.8772,265.0012,95.0857,0.00076709,9.068e-05,0.0,0 STARLINK-3103,1 49177U 21082AZ  23332.83003621  .00009068  00000-0  76709-3 0  9992,2 49177  70.0006 191.8772 0002542 265.0012  95.0857 14.98316727123555,6950.234,96.108,573.866,570.332,0.0
49177.0,STARLINK-3103,PAYLOAD,2023-11-28 21:31:23,14.98318685,0.0002427,70.0007,191.7089,257.493,102.5957,0.0007679,9.078e-05,0.0,0 STARLINK-3103,1 49177U 21082AZ  23332.89679466  .00009078  00000-0  76790-3 0  9995,2 49177  70.0007 191.7089 0002427 257.4930 102.5957 14.98318685123563,6950.228,96.108,573.78,570.406,0.0
49177.0,STARLINK-3103,PAYLOAD,2023-11-28 23:07:31,14.9831877,0.0002426,70.0005,191.5403,259.4057,100.6829,0.00076607,9.057e-05,0.0,0 STARLINK-3103,1 49177U 21082AZ  23332.96355529  .00009057  00000-0  76607-3 0  9998,2 49177  70.0005 191.5403 0002426 259.4057 100.6829 14.98318770123573,6950.228,96.108,573.779,570.406,0.0
49177.0,STARLINK-3103,PAYLOAD,2023-11-29 18:21:07,14.98343625,0.0002575,70.0003,189.5227,248.6181,111.4704,6.3556e-05,6.66e-06,0.0,0 STARLINK-3103,1 49177U 21082AZ  23333.76466994  .00000666  00000-0  63556-4 0  9993,2 49177  70.0003 189.5227 0002575 248.6181 111.4704 14.98343625123697,6950.151,96.106,573.805,570.226,0.0
49177.0,STARLINK-3103,PAYLOAD,2023-11-30 00:45:40,14.98334457,0.0002443,70.0002,188.847,257.2347,102.8539,-2.0511e-05,-3.38e-06,0.0,0 STARLINK-3103,1 49177U 21082AZ  23334.03171564 -.00000338  00000-0 -20511-4 0  9992,2 49177  70.0002 188.8470 0002443 257.2347 102.8539 14.98334457123730,6950.179,96.107,573.742,570.346,0.0
49177.0,STARLINK-3103,PAYLOAD,2023-12-01 00:47:40,14.98338761,0.0002193,69.9993,186.3211,261.6648,98.4263,-5.4856e-05,-7.47e-06,0.0,0 STARLINK-3103,1 49177U 21082AZ  23335.03310753 -.00000747  00000-0 -54856-4 0  9991,2 49177  69.9993 186.3211 0002193 261.6648  98.4263 14.98338761123889,6950.166,96.106,573.555,570.507,0.0
49177.0,STARLINK-3103,PAYLOAD,2023-12-01 21:37:25,14.98328532,0.0002306,70.0002,184.1345,245.853,114.2388,0.00015193,1.72e-05,0.0,0 STARLINK-3103,1 49177U 21082AZ  23335.90098558  .00001720  00000-0  15193-3 0  9993,2 49177  70.0002 184.1345 0002306 245.8530 114.2388 14.98328532124013,6950.197,96.107,573.665,570.46,0.0
49177.0,STARLINK-3103,PAYLOAD,2023-12-02 00:49:40,14.9833612,0.000241,69.9994,183.7961,264.7404,95.348,0.00011528,1.283e-05,0.0,0 STARLINK-3103,1 49177U 21082AZ  23336.03450123  .00001283  00000-0  11528-3 0  9990,2 49177  69.9994 183.7961 0002410 264.7404  95.3480 14.98336120124031,6950.174,96.107,573.714,570.364,0.0
49177.0,STARLINK-3103,PAYLOAD,2023-12-02 20:03:17,14.98329856,0.000252,69.9995,181.7769,253.3564,106.7318,5.5092e-05,5.64e-06,0.0,0 STARLINK-3103,1 49177U 21082AZ  23336.83562389  .00000564  00000-0  55092-4 0  9992,2 49177  69.9995 181.7769 0002520 253.3564 106.7318 14.98329856124157,6950.193,96.107,573.81,570.307,0.0
49177.0,STARLINK-3103,PAYLOAD,2023-12-02 21:39:26,14.98322783,0.0002221,70.0006,181.61,244.8084,115.2845,-6.4883e-05,-8.67e-06,0.0,0 STARLINK-3103,1 49177U 21082AZ  23336.90239198 -.00000867  00000-0 -64883-4 0  9995,2 49177  70.0006 181.6100 0002221 244.8084 115.2845 14.98322783124164,6950.215,96.107,573.624,570.537,0.0
49177.0,STARLINK-3103,PAYLOAD,2023-12-03 13:40:47,14.98327066,0.000205,69.9997,179.9251,256.7776,103.3155,-2.8372e-05,-4.31e-06,0.0,0 STARLINK-3103,1 49177U 21082AZ  23337.56999041 -.00000431  00000-0 -28372-4 0  9998,2 49177  69.9997 179.9251 0002050 256.7776 103.3155 14.98327066124269,6950.202,96.107,573.492,570.642,0.0
49177.0,STARLINK-3103,PAYLOAD,2023-12-03 20:05:19,14.98323848,0.0002515,69.999,179.2514,254.6249,105.4632,-6.6077e-05,-8.81e-06,0.0,0 STARLINK-3103,1 49177U 21082AZ  23337.83703298 -.00000881  00000-0 -66077-4 0  9998,2 49177  69.9990 179.2514 0002515 254.6249 105.4632 14.98323848124307,6950.212,96.107,573.825,570.329,0.0
49177.0,STARLINK-3103,PAYLOAD,2023-12-04 12:06:40,14.98324433,0.0002708,69.9982,177.5671,262.8327,97.2524,-3.3229e-06,-1.33e-06,0.0,0 STARLINK-3103,1 49177U 21082AZ  23338.50463309 -.00000133  00000-0 -33229-5 0  9993,2 49177  69.9982 177.5671 0002708 262.8327  97.2524 14.98324433124405,6950.21,96.107,573.957,570.193,0.0
